{
"type": "FeatureCollection",
"name": "healthcare",
"crs": { "type": "name", "properties": { "name": "urn:ogc:def:crs:OGC:1.3:CRS84" } },
"features": [
{ "type": "Feature", "properties": { "facility_id": "HLT_001", "facility_name": "Hospital Tanjong Karang", "facility_type": "hospital", "named": true, "source_type": "area", "source_records": 1 }, "geometry": { "type": "Polygon", "coordinates": [ [ [ 101.2149715, 3.3962974 ], [ 101.2164969, 3.3981119 ], [ 101.2176347, 3.3972573 ], [ 101.2175864, 3.3968553 ], [ 101.2190126, 3.3956097 ], [ 101.2178907, 3.3940702 ], [ 101.2149715, 3.3962974 ] ] ] } },
{ "type": "Feature", "properties": { "facility_id": "HLT_002", "facility_name": "Klinik Kesihatan Kuala Selangor", "facility_type": "clinic", "named": true, "source_type": "area", "source_records": 1 }, "geometry": { "type": "Polygon", "coordinates": [ [ [ 101.2491591, 3.3368117 ], [ 101.2498059, 3.3372793 ], [ 101.2500507, 3.3369398 ], [ 101.2502912, 3.3366101 ], [ 101.2496442, 3.3361426 ], [ 101.2491591, 3.3368117 ] ] ] } },
{ "type": "Feature", "properties": { "facility_id": "HLT_003", "facility_name": "Klinik Kesihatan Ijok", "facility_type": "clinic", "named": true, "source_type": "area", "source_records": 1 }, "geometry": { "type": "Polygon", "coordinates": [ [ [ 101.4134109, 3.3176814 ], [ 101.4148635, 3.317676 ], [ 101.4149176, 3.3176238 ], [ 101.4149631, 3.317461 ], [ 101.4149342, 3.3174213 ], [ 101.413448800000012, 3.3174242 ], [ 101.4134109, 3.3176814 ] ] ] } },
{ "type": "Feature", "properties": { "facility_id": "HLT_004", "facility_name": "Klinik Kesihatan Jeram", "facility_type": "clinic", "named": true, "source_type": "area", "source_records": 1 }, "geometry": { "type": "Polygon", "coordinates": [ [ [ 101.3138534, 3.2328416 ], [ 101.313868, 3.2337144 ], [ 101.315096, 3.2336938 ], [ 101.3150814, 3.2328212 ], [ 101.3138534, 3.2328416 ] ] ] } },
{ "type": "Feature", "properties": { "facility_id": "HLT_005", "facility_name": "Hospital Al-Sultan Abdullah UiTM", "facility_type": "hospital", "named": true, "source_type": "area", "source_records": 1 }, "geometry": { "type": "Polygon", "coordinates": [ [ [ 101.449172100000013, 3.2094518 ], [ 101.4493314, 3.2098268 ], [ 101.4494983, 3.2103002 ], [ 101.4494983, 3.2107206 ], [ 101.4496804, 3.2111107 ], [ 101.4498738, 3.2113227 ], [ 101.4501849, 3.2115159 ], [ 101.4504997, 3.2116182 ], [ 101.4509587, 3.2116144 ], [ 101.4511749, 3.2115538 ], [ 101.4530943, 3.2107016 ], [ 101.4525177, 3.2093155 ], [ 101.4522787, 3.2090958 ], [ 101.4509094, 3.2078536 ], [ 101.450807, 3.2076302 ], [ 101.4508032, 3.2075279 ], [ 101.4504125, 3.2078498 ], [ 101.4499383, 3.2083649 ], [ 101.449172100000013, 3.2094518 ] ] ] } },
{ "type": "Feature", "properties": { "facility_id": "HLT_006", "facility_name": "Hospital Tanjong Karang (Lama)", "facility_type": "clinic", "named": true, "source_type": "area", "source_records": 1 }, "geometry": { "type": "Polygon", "coordinates": [ [ [ 101.1784687, 3.4247975 ], [ 101.1784917, 3.4258393 ], [ 101.1791347, 3.4264557 ], [ 101.18001, 3.4277421 ], [ 101.1810307, 3.4270976 ], [ 101.180949, 3.426927 ], [ 101.1810128, 3.4268837 ], [ 101.1794639, 3.4247822 ], [ 101.1784687, 3.4247975 ] ] ] } },
{ "type": "Feature", "properties": { "facility_id": "HLT_007", "facility_name": "Klinik Kesihatan Tanjong Karang", "facility_type": "clinic", "named": true, "source_type": "area", "source_records": 1 }, "geometry": { "type": "Polygon", "coordinates": [ [ [ 101.1732392, 3.4223326 ], [ 101.174013, 3.4223023 ], [ 101.1740009, 3.4209513 ], [ 101.1732726, 3.4209543 ], [ 101.1732392, 3.4223326 ] ] ] } },
{ "type": "Feature", "properties": { "facility_id": "HLT_008", "facility_name": "KPJ Specialist Hospital Kuala Selangor", "facility_type": "hospital", "named": true, "source_type": "area", "source_records": 1 }, "geometry": { "type": "Polygon", "coordinates": [ [ [ 101.2565059, 3.3450654 ], [ 101.2569122, 3.345245 ], [ 101.2577652, 3.343546 ], [ 101.2567585, 3.3430312 ], [ 101.2567883, 3.3432155 ], [ 101.2568056, 3.3436539 ], [ 101.2567613, 3.3439681 ], [ 101.2566435, 3.3444823 ], [ 101.2565059, 3.3450654 ] ] ] } },
{ "type": "Feature", "properties": { "facility_id": "HLT_009", "facility_name": null, "facility_type": "clinic", "named": false, "source_type": "area", "source_records": 1 }, "geometry": { "type": "Polygon", "coordinates": [ [ [ 101.406757500000012, 3.3795829 ], [ 101.4069519, 3.3803841 ], [ 101.4078379, 3.3801699 ], [ 101.4078686, 3.3802965 ], [ 101.4081209, 3.3802355 ], [ 101.4078959, 3.3793077 ], [ 101.406757500000012, 3.3795829 ] ] ] } },
{ "type": "Feature", "properties": { "facility_id": "HLT_010", "facility_name": "Klinik Desa Bukit Belimbing", "facility_type": "clinic", "named": true, "source_type": "area", "source_records": 1 }, "geometry": { "type": "Polygon", "coordinates": [ [ [ 101.2723137, 3.389731 ], [ 101.2725265, 3.3901644 ], [ 101.2729321, 3.3899891 ], [ 101.2727246, 3.3895412 ], [ 101.2723137, 3.389731 ] ] ] } },
{ "type": "Feature", "properties": { "facility_id": "HLT_011", "facility_name": "Klinik Desa Pasir Penambang", "facility_type": "clinic", "named": true, "source_type": "area", "source_records": 1 }, "geometry": { "type": "Polygon", "coordinates": [ [ [ 101.247327500000011, 3.3634109 ], [ 101.2475454, 3.3637204 ], [ 101.2479371, 3.3634456 ], [ 101.2477193, 3.3631361 ], [ 101.247327500000011, 3.3634109 ] ] ] } },
{ "type": "Feature", "properties": { "facility_id": "HLT_012", "facility_name": "Klinik Desa Bukit Kuching", "facility_type": "clinic", "named": true, "source_type": "area", "source_records": 1 }, "geometry": { "type": "Polygon", "coordinates": [ [ [ 101.3475037, 3.2717373 ], [ 101.3476392, 3.2717403 ], [ 101.3476405, 3.271685 ], [ 101.3476136, 3.2716844 ], [ 101.3476146, 3.2716387 ], [ 101.3475715, 3.2716378 ], [ 101.3475705, 3.2716835 ], [ 101.3475049, 3.271682 ], [ 101.3475037, 3.2717373 ] ] ] } },
{ "type": "Feature", "properties": { "facility_id": "HLT_013", "facility_name": "Klinik Desa Assam Jawa", "facility_type": "clinic", "named": true, "source_type": "area", "source_records": 1 }, "geometry": { "type": "Polygon", "coordinates": [ [ [ 101.2891678, 3.3007351 ], [ 101.2894863, 3.3009572 ], [ 101.2896553, 3.3007157 ], [ 101.2893367, 3.3004936 ], [ 101.2891678, 3.3007351 ] ] ] } },
{ "type": "Feature", "properties": { "facility_id": "HLT_014", "facility_name": "Klinik Komuniti", "facility_type": "doctors", "named": true, "source_type": "point", "source_records": 1 }, "geometry": { "type": "Point", "coordinates": [ 101.4266991, 3.2400613 ] } },
{ "type": "Feature", "properties": { "facility_id": "HLT_015", "facility_name": "Poliklinik An-Nisa'", "facility_type": "clinic", "named": true, "source_type": "point", "source_records": 1 }, "geometry": { "type": "Point", "coordinates": [ 101.4262624, 3.2294775 ] } },
{ "type": "Feature", "properties": { "facility_id": "HLT_016", "facility_name": "Poliklinik Ikhwan", "facility_type": "clinic", "named": true, "source_type": "point", "source_records": 1 }, "geometry": { "type": "Point", "coordinates": [ 101.426406, 3.2293703 ] } },
{ "type": "Feature", "properties": { "facility_id": "HLT_017", "facility_name": "Klinik Melawati", "facility_type": "clinic", "named": true, "source_type": "point", "source_records": 1 }, "geometry": { "type": "Point", "coordinates": [ 101.2494862, 3.3400943 ] } },
{ "type": "Feature", "properties": { "facility_id": "HLT_018", "facility_name": "Klinik Usrah Medic", "facility_type": "clinic", "named": true, "source_type": "point", "source_records": 1 }, "geometry": { "type": "Point", "coordinates": [ 101.4276629, 3.2351258 ] } },
{ "type": "Feature", "properties": { "facility_id": "HLT_019", "facility_name": "Klinik Mediviron", "facility_type": "clinic", "named": true, "source_type": "point", "source_records": 1 }, "geometry": { "type": "Point", "coordinates": [ 101.2668924, 3.3219362 ] } },
{ "type": "Feature", "properties": { "facility_id": "HLT_020", "facility_name": "klinik anda", "facility_type": "clinic", "named": true, "source_type": "point", "source_records": 1 }, "geometry": { "type": "Point", "coordinates": [ 101.2682444, 3.3204019 ] } },
{ "type": "Feature", "properties": { "facility_id": "HLT_021", "facility_name": "Sai Policlinic", "facility_type": "clinic", "named": true, "source_type": "point", "source_records": 1 }, "geometry": { "type": "Point", "coordinates": [ 101.4096732, 3.3765536 ] } },
{ "type": "Feature", "properties": { "facility_id": "HLT_022", "facility_name": "Klinik Ng dan Singh", "facility_type": "clinic", "named": true, "source_type": "point", "source_records": 1 }, "geometry": { "type": "Point", "coordinates": [ 101.4100343, 3.314201 ] } },
{ "type": "Feature", "properties": { "facility_id": "HLT_023", "facility_name": "Klinik Desa Puncak Alam", "facility_type": "clinic", "named": true, "source_type": "point", "source_records": 1 }, "geometry": { "type": "Point", "coordinates": [ 101.4252047, 3.2322513 ] } },
{ "type": "Feature", "properties": { "facility_id": "HLT_024", "facility_name": "Klinik Keluarga Rohani", "facility_type": "clinic", "named": true, "source_type": "point", "source_records": 1 }, "geometry": { "type": "Point", "coordinates": [ 101.4271966, 3.2293019 ] } },
{ "type": "Feature", "properties": { "facility_id": "HLT_025", "facility_name": "Klinik Nur Raisha", "facility_type": "clinic", "named": true, "source_type": "point", "source_records": 1 }, "geometry": { "type": "Point", "coordinates": [ 101.4277106, 3.2347629 ] } },
{ "type": "Feature", "properties": { "facility_id": "HLT_026", "facility_name": "Klinik Oasis", "facility_type": "clinic", "named": true, "source_type": "point", "source_records": 1 }, "geometry": { "type": "Point", "coordinates": [ 101.4511526, 3.2316899 ] } },
{ "type": "Feature", "properties": { "facility_id": "HLT_027", "facility_name": "Klinik Ikhwan", "facility_type": "clinic", "named": true, "source_type": "point", "source_records": 1 }, "geometry": { "type": "Point", "coordinates": [ 101.485558, 3.200865 ] } },
{ "type": "Feature", "properties": { "facility_id": "HLT_028", "facility_name": "Klinik Roziana", "facility_type": "clinic", "named": true, "source_type": "point", "source_records": 1 }, "geometry": { "type": "Point", "coordinates": [ 101.4142582, 3.2347308 ] } },
{ "type": "Feature", "properties": { "facility_id": "HLT_029", "facility_name": "Klinik Desa Sungai Sembilang", "facility_type": "clinic", "named": true, "source_type": "point", "source_records": 1 }, "geometry": { "type": "Point", "coordinates": [ 101.3151992, 3.1921229 ] } },
{ "type": "Feature", "properties": { "facility_id": "HLT_030", "facility_name": "Klinik Dr. Suhaida", "facility_type": "clinic", "named": true, "source_type": "point", "source_records": 1 }, "geometry": { "type": "Point", "coordinates": [ 101.4456789, 3.2385532 ] } },
{ "type": "Feature", "properties": { "facility_id": "HLT_031", "facility_name": "Klinik Siti", "facility_type": "clinic", "named": true, "source_type": "point", "source_records": 1 }, "geometry": { "type": "Point", "coordinates": [ 101.2637733, 3.3246697 ] } },
{ "type": "Feature", "properties": { "facility_id": "HLT_032", "facility_name": "Klinik Haza", "facility_type": "clinic", "named": true, "source_type": "point", "source_records": 1 }, "geometry": { "type": "Point", "coordinates": [ 101.4141944, 3.2334499 ] } },
{ "type": "Feature", "properties": { "facility_id": "HLT_033", "facility_name": "Klinik Ajwa", "facility_type": "clinic", "named": true, "source_type": "point", "source_records": 1 }, "geometry": { "type": "Point", "coordinates": [ 101.4503882, 3.2329215 ] } },
{ "type": "Feature", "properties": { "facility_id": "HLT_034", "facility_name": "Klinik Fiza", "facility_type": "clinic", "named": true, "source_type": "point", "source_records": 1 }, "geometry": { "type": "Point", "coordinates": [ 101.4736292, 3.2068245 ] } },
{ "type": "Feature", "properties": { "facility_id": "HLT_035", "facility_name": "Pusat Dialisis Nur Kasih", "facility_type": "clinic", "named": true, "source_type": "point", "source_records": 1 }, "geometry": { "type": "Point", "coordinates": [ 101.4287357, 3.2360027 ] } },
{ "type": "Feature", "properties": { "facility_id": "HLT_036", "facility_name": "Poliklinik Shamsara", "facility_type": "clinic", "named": true, "source_type": "point", "source_records": 1 }, "geometry": { "type": "Point", "coordinates": [ 101.4145792, 3.2326815 ] } },
{ "type": "Feature", "properties": { "facility_id": "HLT_037", "facility_name": "Klinik Komuniti Bandar Saujana Utama", "facility_type": "clinic", "named": true, "source_type": "point", "source_records": 1 }, "geometry": { "type": "Point", "coordinates": [ 101.4872983, 3.2056593 ] } },
{ "type": "Feature", "properties": { "facility_id": "HLT_038", "facility_name": "Klinik Mediviron", "facility_type": "clinic", "named": true, "source_type": "point", "source_records": 1 }, "geometry": { "type": "Point", "coordinates": [ 101.1803546, 3.4244352 ] } },
{ "type": "Feature", "properties": { "facility_id": "HLT_039", "facility_name": "Klinik Mediviron Bandar Seri Coalfields", "facility_type": "clinic", "named": true, "source_type": "point", "source_records": 1 }, "geometry": { "type": "Point", "coordinates": [ 101.4751582, 3.2424004 ] } },
{ "type": "Feature", "properties": { "facility_id": "HLT_040", "facility_name": "Klinik Siti", "facility_type": "clinic", "named": true, "source_type": "point", "source_records": 1 }, "geometry": { "type": "Point", "coordinates": [ 101.4327729, 3.2412742 ] } },
{ "type": "Feature", "properties": { "facility_id": "HLT_041", "facility_name": null, "facility_type": "clinic", "named": false, "source_type": "point", "source_records": 1 }, "geometry": { "type": "Point", "coordinates": [ 101.4873744, 3.2058055 ] } },
{ "type": "Feature", "properties": { "facility_id": "HLT_042", "facility_name": "Getwell Clinic", "facility_type": "clinic", "named": true, "source_type": "point", "source_records": 1 }, "geometry": { "type": "Point", "coordinates": [ 101.4531844, 3.2322117 ] } },
{ "type": "Feature", "properties": { "facility_id": "HLT_043", "facility_name": null, "facility_type": "clinic", "named": false, "source_type": "point", "source_records": 1 }, "geometry": { "type": "Point", "coordinates": [ 101.4706579, 3.2055718 ] } },
{ "type": "Feature", "properties": { "facility_id": "HLT_044", "facility_name": "U.n.i Klinik", "facility_type": "clinic", "named": true, "source_type": "point", "source_records": 1 }, "geometry": { "type": "Point", "coordinates": [ 101.4748515, 3.2073614 ] } },
{ "type": "Feature", "properties": { "facility_id": "HLT_045", "facility_name": null, "facility_type": "clinic", "named": false, "source_type": "point", "source_records": 1 }, "geometry": { "type": "Point", "coordinates": [ 101.4762402, 3.2070749 ] } },
{ "type": "Feature", "properties": { "facility_id": "HLT_046", "facility_name": "U.N.I. Klinik", "facility_type": "clinic", "named": true, "source_type": "point", "source_records": 1 }, "geometry": { "type": "Point", "coordinates": [ 101.4485307, 3.2401595 ] } },
{ "type": "Feature", "properties": { "facility_id": "HLT_047", "facility_name": "Klinik Mediviron Puncak Alam", "facility_type": "clinic", "named": true, "source_type": "point", "source_records": 1 }, "geometry": { "type": "Point", "coordinates": [ 101.4452673, 3.2398128 ] } },
{ "type": "Feature", "properties": { "facility_id": "HLT_048", "facility_name": "Poliklinik Dr Petricia", "facility_type": "clinic", "named": true, "source_type": "point", "source_records": 1 }, "geometry": { "type": "Point", "coordinates": [ 101.2712289, 3.3208175 ] } },
{ "type": "Feature", "properties": { "facility_id": "HLT_049", "facility_name": "Klinik Bahiah", "facility_type": "clinic", "named": true, "source_type": "point", "source_records": 1 }, "geometry": { "type": "Point", "coordinates": [ 101.4873741, 3.2027651 ] } },
{ "type": "Feature", "properties": { "facility_id": "HLT_050", "facility_name": "Klinik Siti", "facility_type": "clinic", "named": true, "source_type": "point", "source_records": 1 }, "geometry": { "type": "Point", "coordinates": [ 101.474077500000021, 3.2070464 ] } },
{ "type": "Feature", "properties": { "facility_id": "HLT_051", "facility_name": "Poliklinik Desa Sentral", "facility_type": "clinic", "named": true, "source_type": "point", "source_records": 1 }, "geometry": { "type": "Point", "coordinates": [ 101.4896666, 3.2345239 ] } },
{ "type": "Feature", "properties": { "facility_id": "HLT_052", "facility_name": "Alam Medic", "facility_type": "clinic", "named": true, "source_type": "point", "source_records": 1 }, "geometry": { "type": "Point", "coordinates": [ 101.4270781, 3.2468965 ] } },
{ "type": "Feature", "properties": { "facility_id": "HLT_053", "facility_name": "Klinik Mediviron", "facility_type": "clinic", "named": true, "source_type": "point", "source_records": 1 }, "geometry": { "type": "Point", "coordinates": [ 101.3077743, 3.2560767 ] } },
{ "type": "Feature", "properties": { "facility_id": "HLT_054", "facility_name": "Nefrocare", "facility_type": "clinic", "named": true, "source_type": "point", "source_records": 1 }, "geometry": { "type": "Point", "coordinates": [ 101.4747762, 3.2461749 ] } },
{ "type": "Feature", "properties": { "facility_id": "HLT_055", "facility_name": "Marissa Mediclinic", "facility_type": "clinic", "named": true, "source_type": "point", "source_records": 1 }, "geometry": { "type": "Point", "coordinates": [ 101.4543469, 3.2118257 ] } },
{ "type": "Feature", "properties": { "facility_id": "HLT_056", "facility_name": "Klinik Mawarni", "facility_type": "clinic", "named": true, "source_type": "point", "source_records": 1 }, "geometry": { "type": "Point", "coordinates": [ 101.4251395, 3.2439957 ] } },
{ "type": "Feature", "properties": { "facility_id": "HLT_057", "facility_name": "Poliklinik & Surgeri Astana Jaya", "facility_type": "clinic", "named": true, "source_type": "point", "source_records": 1 }, "geometry": { "type": "Point", "coordinates": [ 101.4256113, 3.2447524 ] } },
{ "type": "Feature", "properties": { "facility_id": "HLT_058", "facility_name": "Poliklinik Dr. Azhar Dan Rakan-rakan", "facility_type": "clinic", "named": true, "source_type": "point", "source_records": 1 }, "geometry": { "type": "Point", "coordinates": [ 101.4260891, 3.2451683 ] } },
{ "type": "Feature", "properties": { "facility_id": "HLT_059", "facility_name": "Foresight Dialysis", "facility_type": "clinic", "named": true, "source_type": "point", "source_records": 1 }, "geometry": { "type": "Point", "coordinates": [ 101.413474, 3.2336213 ] } },
{ "type": "Feature", "properties": { "facility_id": "HLT_060", "facility_name": "Klinik Eco Medic", "facility_type": "clinic", "named": true, "source_type": "point", "source_records": 1 }, "geometry": { "type": "Point", "coordinates": [ 101.4535553, 3.2327117 ] } },
{ "type": "Feature", "properties": { "facility_id": "HLT_061", "facility_name": "Klinik JKKP", "facility_type": "clinic", "named": true, "source_type": "point", "source_records": 1 }, "geometry": { "type": "Point", "coordinates": [ 101.4350641, 3.2053662 ] } },
{ "type": "Feature", "properties": { "facility_id": "HLT_062", "facility_name": "Klinik Dr. Ko", "facility_type": "clinic", "named": true, "source_type": "point", "source_records": 1 }, "geometry": { "type": "Point", "coordinates": [ 101.4530188, 3.2319165 ] } },
{ "type": "Feature", "properties": { "facility_id": "HLT_063", "facility_name": "Klinik Dr. Syuhada", "facility_type": "clinic", "named": true, "source_type": "point", "source_records": 1 }, "geometry": { "type": "Point", "coordinates": [ 101.4136653, 3.2345358 ] } },
{ "type": "Feature", "properties": { "facility_id": "HLT_064", "facility_name": "Klinik Afeeya", "facility_type": "clinic", "named": true, "source_type": "point", "source_records": 1 }, "geometry": { "type": "Point", "coordinates": [ 101.4900575, 3.2345615 ] } }
]
}
