{
"type": "FeatureCollection",
"name": "localities",
"crs": { "type": "name", "properties": { "name": "urn:ogc:def:crs:OGC:1.3:CRS84" } },
"features": [
{ "type": "Feature", "properties": { "osm_id": "4930689028", "fclass": "suburb", "population": 0, "name": "Assam Jawa" }, "geometry": { "type": "Point", "coordinates": [ 101.2893798, 3.3000663 ] } },
{ "type": "Feature", "properties": { "osm_id": "4901642226", "fclass": "hamlet", "population": 0, "name": "Bagan Pasir" }, "geometry": { "type": "Point", "coordinates": [ 101.1710699, 3.4009142 ] } },
{ "type": "Feature", "properties": { "osm_id": "8077415263", "fclass": "suburb", "population": 0, "name": "Bandar Hillpark" }, "geometry": { "type": "Point", "coordinates": [ 101.4635865, 3.2109242 ] } },
{ "type": "Feature", "properties": { "osm_id": "5263580022", "fclass": "suburb", "population": 0, "name": "Bandar Saujana Utama" }, "geometry": { "type": "Point", "coordinates": [ 101.4802793, 3.2063158 ] } },
{ "type": "Feature", "properties": { "osm_id": "2571629287", "fclass": "suburb", "population": 0, "name": "Bandar Seri Coalfields" }, "geometry": { "type": "Point", "coordinates": [ 101.4815966, 3.2441796 ] } },
{ "type": "Feature", "properties": { "osm_id": "254072917", "fclass": "town", "population": 0, "name": "Bestari Jaya" }, "geometry": { "type": "Point", "coordinates": [ 101.4102245, 3.378008 ] } },
{ "type": "Feature", "properties": { "osm_id": "254074337", "fclass": "hamlet", "population": 0, "name": "Bukit Jeram" }, "geometry": { "type": "Point", "coordinates": [ 101.3125613, 3.2388831 ] } },
{ "type": "Feature", "properties": { "osm_id": "254074252", "fclass": "village", "population": 0, "name": "Bukit Rotan" }, "geometry": { "type": "Point", "coordinates": [ 101.3163263, 3.3089587 ] } },
{ "type": "Feature", "properties": { "osm_id": "13094145798", "fclass": "hamlet", "population": 0, "name": "Delloyd Sungei Rambai Estate" }, "geometry": { "type": "Point", "coordinates": [ 101.3560917, 3.3550342 ] } },
{ "type": "Feature", "properties": { "osm_id": "8077651103", "fclass": "suburb", "population": 0, "name": "Eco Grandeur" }, "geometry": { "type": "Point", "coordinates": [ 101.4682567, 3.224135 ] } },
{ "type": "Feature", "properties": { "osm_id": "10805085403", "fclass": "hamlet", "population": 0, "name": "Euro-Asia Brand Holding Company Sdn Bhd Ladang Shalimar" }, "geometry": { "type": "Point", "coordinates": [ 101.3176685, 3.3174389 ] } },
{ "type": "Feature", "properties": { "osm_id": "254074126", "fclass": "town", "population": 0, "name": "Ijok" }, "geometry": { "type": "Point", "coordinates": [ 101.4166226, 3.3139175 ] } },
{ "type": "Feature", "properties": { "osm_id": "254074251", "fclass": "village", "population": 0, "name": "Jeram" }, "geometry": { "type": "Point", "coordinates": [ 101.315088, 3.2263502 ] } },
{ "type": "Feature", "properties": { "osm_id": "10083787700", "fclass": "hamlet", "population": 0, "name": "Kampung Ampangan" }, "geometry": { "type": "Point", "coordinates": [ 101.1999548, 3.4971279 ] } },
{ "type": "Feature", "properties": { "osm_id": "8058170682", "fclass": "hamlet", "population": 0, "name": "Kampung Api-Api" }, "geometry": { "type": "Point", "coordinates": [ 101.3005966, 3.2854652 ] } },
{ "type": "Feature", "properties": { "osm_id": "13094151924", "fclass": "hamlet", "population": 0, "name": "Kampung Asahan Batu 8" }, "geometry": { "type": "Point", "coordinates": [ 101.3463864, 3.3615735 ] } },
{ "type": "Feature", "properties": { "osm_id": "1954328913", "fclass": "hamlet", "population": 0, "name": "Kampung Bukit Badong" }, "geometry": { "type": "Point", "coordinates": [ 101.4078091, 3.3396754 ] } },
{ "type": "Feature", "properties": { "osm_id": "10806692482", "fclass": "hamlet", "population": 0, "name": "Kampung Bukit Belimbing" }, "geometry": { "type": "Point", "coordinates": [ 101.2686134, 3.382216 ] } },
{ "type": "Feature", "properties": { "osm_id": "10083787693", "fclass": "hamlet", "population": 0, "name": "Kampung Haji Razali" }, "geometry": { "type": "Point", "coordinates": [ 101.173547, 3.4394828 ] } },
{ "type": "Feature", "properties": { "osm_id": "10804010314", "fclass": "village", "population": 0, "name": "Kampung Harmoni" }, "geometry": { "type": "Point", "coordinates": [ 101.4204769, 3.3148319 ] } },
{ "type": "Feature", "properties": { "osm_id": "8058159433", "fclass": "hamlet", "population": 0, "name": "Kampung Ijok" }, "geometry": { "type": "Point", "coordinates": [ 101.4010461, 3.3121203 ] } },
{ "type": "Feature", "properties": { "osm_id": "11234806436", "fclass": "hamlet", "population": 0, "name": "Kampung Jawa Selangor" }, "geometry": { "type": "Point", "coordinates": [ 101.4015334, 3.368382 ] } },
{ "type": "Feature", "properties": { "osm_id": "11810181973", "fclass": "hamlet", "population": 0, "name": "Kampung Jeram Pantai" }, "geometry": { "type": "Point", "coordinates": [ 101.3065285, 3.2259857 ] } },
{ "type": "Feature", "properties": { "osm_id": "11168752409", "fclass": "hamlet", "population": 0, "name": "Kampung Kuantan" }, "geometry": { "type": "Point", "coordinates": [ 101.3022616, 3.3607569 ] } },
{ "type": "Feature", "properties": { "osm_id": "11166631081", "fclass": "hamlet", "population": 0, "name": "Kampung Kunci Air Buang" }, "geometry": { "type": "Point", "coordinates": [ 101.1867517, 3.4522123 ] } },
{ "type": "Feature", "properties": { "osm_id": "10807095872", "fclass": "hamlet", "population": 0, "name": "Kampung Melaka" }, "geometry": { "type": "Point", "coordinates": [ 101.156376, 3.4401711 ] } },
{ "type": "Feature", "properties": { "osm_id": "10806985302", "fclass": "hamlet", "population": 0, "name": "Kampung Parit 2 Ban 2" }, "geometry": { "type": "Point", "coordinates": [ 101.1617739, 3.4823587 ] } },
{ "type": "Feature", "properties": { "osm_id": "10806985301", "fclass": "hamlet", "population": 0, "name": "Kampung Parit 3" }, "geometry": { "type": "Point", "coordinates": [ 101.1398718, 3.4825764 ] } },
{ "type": "Feature", "properties": { "osm_id": "7346663408", "fclass": "village", "population": 0, "name": "Kampung Parit Serong" }, "geometry": { "type": "Point", "coordinates": [ 101.2268088, 3.422742 ] } },
{ "type": "Feature", "properties": { "osm_id": "11810055619", "fclass": "hamlet", "population": 0, "name": "Kampung Pasir Tuntong" }, "geometry": { "type": "Point", "coordinates": [ 101.2965857, 3.2743784 ] } },
{ "type": "Feature", "properties": { "osm_id": "5520562173", "fclass": "hamlet", "population": 0, "name": "Kampung Rantau Panjang" }, "geometry": { "type": "Point", "coordinates": [ 101.4418918, 3.4034361 ] } },
{ "type": "Feature", "properties": { "osm_id": "6645503876", "fclass": "hamlet", "population": 0, "name": "Kampung Sepakat" }, "geometry": { "type": "Point", "coordinates": [ 101.2652459, 3.356082 ] } },
{ "type": "Feature", "properties": { "osm_id": "11951689639", "fclass": "hamlet", "population": 0, "name": "Kampung Seri Sentosa" }, "geometry": { "type": "Point", "coordinates": [ 101.4712967, 3.2472871 ] } },
{ "type": "Feature", "properties": { "osm_id": "7346663406", "fclass": "village", "population": 0, "name": "Kampung Seri Tiram Jaya" }, "geometry": { "type": "Point", "coordinates": [ 101.229916, 3.433239 ] } },
{ "type": "Feature", "properties": { "osm_id": "10199385762", "fclass": "hamlet", "population": 0, "name": "Kampung Sri Makmur" }, "geometry": { "type": "Point", "coordinates": [ 101.3841144, 3.4048175 ] } },
{ "type": "Feature", "properties": { "osm_id": "5520562174", "fclass": "hamlet", "population": 0, "name": "Kampung Sungai Darat" }, "geometry": { "type": "Point", "coordinates": [ 101.4353749, 3.387621 ] } },
{ "type": "Feature", "properties": { "osm_id": "7346662848", "fclass": "village", "population": 0, "name": "Kampung Sungai Gulang-Gulang" }, "geometry": { "type": "Point", "coordinates": [ 101.2130588, 3.4241726 ] } },
{ "type": "Feature", "properties": { "osm_id": "11809942638", "fclass": "hamlet", "population": 0, "name": "Kampung Sungai Kajang" }, "geometry": { "type": "Point", "coordinates": [ 101.1596299, 3.4158399 ] } },
{ "type": "Feature", "properties": { "osm_id": "10806721166", "fclass": "hamlet", "population": 0, "name": "Kampung Sungai Tunggal Baru" }, "geometry": { "type": "Point", "coordinates": [ 101.2020389, 3.3901569 ] } },
{ "type": "Feature", "properties": { "osm_id": "6795150500", "fclass": "hamlet", "population": 0, "name": "Kampung Tanjong Keramat" }, "geometry": { "type": "Point", "coordinates": [ 101.2404921, 3.349138 ] } },
{ "type": "Feature", "properties": { "osm_id": "11812171653", "fclass": "hamlet", "population": 0, "name": "Kampung Teluk Penyamun" }, "geometry": { "type": "Point", "coordinates": [ 101.2743962, 3.3597935 ] } },
{ "type": "Feature", "properties": { "osm_id": "7346662809", "fclass": "hamlet", "population": 0, "name": "Kampung Tok Adam" }, "geometry": { "type": "Point", "coordinates": [ 101.1811168, 3.4164699 ] } },
{ "type": "Feature", "properties": { "osm_id": "4745820722", "fclass": "city", "population": 281717, "name": "Kuala Selangor" }, "geometry": { "type": "Point", "coordinates": [ 101.2513058, 3.3314558 ] } },
{ "type": "Feature", "properties": { "osm_id": "254073148", "fclass": "hamlet", "population": 0, "name": "Kuala Sungai Buloh" }, "geometry": { "type": "Point", "coordinates": [ 101.313273, 3.256661 ] } },
{ "type": "Feature", "properties": { "osm_id": "13094151986", "fclass": "hamlet", "population": 0, "name": "Ladang Kamasan" }, "geometry": { "type": "Point", "coordinates": [ 101.2893761, 3.351846 ] } },
{ "type": "Feature", "properties": { "osm_id": "11684587918", "fclass": "locality", "population": 0, "name": "Ladang Raja Musa" }, "geometry": { "type": "Point", "coordinates": [ 101.2824124, 3.4091822 ] } },
{ "type": "Feature", "properties": { "osm_id": "254072879", "fclass": "suburb", "population": 0, "name": "Pasir Penambang" }, "geometry": { "type": "Point", "coordinates": [ 101.2522955, 3.3514431 ] } },
{ "type": "Feature", "properties": { "osm_id": "4725488689", "fclass": "town", "population": 0, "name": "Puncak Alam" }, "geometry": { "type": "Point", "coordinates": [ 101.4258355, 3.2342055 ] } },
{ "type": "Feature", "properties": { "osm_id": "13094151940", "fclass": "hamlet", "population": 0, "name": "SD Guthrie Ladang Sungai Buloh Divisyen Selangor River" }, "geometry": { "type": "Point", "coordinates": [ 101.3289, 3.3570032 ] } },
{ "type": "Feature", "properties": { "osm_id": "4901664723", "fclass": "village", "population": 0, "name": "Sasaran" }, "geometry": { "type": "Point", "coordinates": [ 101.3063088, 3.2589843 ] } },
{ "type": "Feature", "properties": { "osm_id": "10805085385", "fclass": "hamlet", "population": 0, "name": "Sime Darby Plantation Ladang Sungai Buloh" }, "geometry": { "type": "Point", "coordinates": [ 101.3579616, 3.3073636 ] } },
{ "type": "Feature", "properties": { "osm_id": "10805085394", "fclass": "hamlet", "population": 0, "name": "Sime Darby Plantation Ladang Sungai Buloh" }, "geometry": { "type": "Point", "coordinates": [ 101.3192661, 3.3085672 ] } },
{ "type": "Feature", "properties": { "osm_id": "10134729181", "fclass": "hamlet", "population": 0, "name": "Sime Darby Plantation Ladang Tennamaram" }, "geometry": { "type": "Point", "coordinates": [ 101.4576099, 3.4488478 ] } },
{ "type": "Feature", "properties": { "osm_id": "10199385744", "fclass": "hamlet", "population": 0, "name": "Sime Darby Plantation Ladang Tennamaram" }, "geometry": { "type": "Point", "coordinates": [ 101.4040229, 3.4032748 ] } },
{ "type": "Feature", "properties": { "osm_id": "254073265", "fclass": "hamlet", "population": 0, "name": "Simpang Tiga" }, "geometry": { "type": "Point", "coordinates": [ 101.3441137, 3.2250106 ] } },
{ "type": "Feature", "properties": { "osm_id": "7656892310", "fclass": "hamlet", "population": 0, "name": "Sungai Sembilang" }, "geometry": { "type": "Point", "coordinates": [ 101.31472, 3.1946749 ] } },
{ "type": "Feature", "properties": { "osm_id": "254074407", "fclass": "town", "population": 0, "name": "Tanjong Karang" }, "geometry": { "type": "Point", "coordinates": [ 101.1765284, 3.4248609 ] } }
]
}
