{
"type": "FeatureCollection",
"name": "schools",
"crs": { "type": "name", "properties": { "name": "urn:ogc:def:crs:OGC:1.3:CRS84" } },
"features": [
{ "type": "Feature", "properties": { "school_id": "SCH_001", "school_name": "SMKA Kuala Selangor", "named": true, "source_type": "area", "source_records": 1 }, "geometry": { "type": "Polygon", "coordinates": [ [ [ 101.2434301, 3.3610082 ], [ 101.2440968, 3.3614276 ], [ 101.2440968, 3.3617829 ], [ 101.2457433, 3.3619422 ], [ 101.2462331, 3.3621487 ], [ 101.2472266, 3.3625024 ], [ 101.2484148, 3.3609896 ], [ 101.2454617, 3.3585182 ], [ 101.2434301, 3.3610082 ] ] ] } },
{ "type": "Feature", "properties": { "school_id": "SCH_002", "school_name": "Kolej Vokasional Kuala Selangor", "named": true, "source_type": "area", "source_records": 1 }, "geometry": { "type": "Polygon", "coordinates": [ [ [ 101.3959847, 3.3833926 ], [ 101.3962189, 3.3836009 ], [ 101.3971002, 3.3843702 ], [ 101.3977048, 3.384621 ], [ 101.399195, 3.3849738 ], [ 101.3993142, 3.3850758 ], [ 101.4002169, 3.3851863 ], [ 101.4007832, 3.385165 ], [ 101.4006086, 3.3842044 ], [ 101.4004638, 3.3837624 ], [ 101.4001062, 3.3829719 ], [ 101.3987181, 3.3823598 ], [ 101.3986245, 3.382279 ], [ 101.396981, 3.3815947 ], [ 101.3967, 3.3815692 ], [ 101.3959847, 3.3833926 ] ] ] } },
{ "type": "Feature", "properties": { "school_id": "SCH_003", "school_name": "SK Sungai Terap", "named": true, "source_type": "area", "source_records": 1 }, "geometry": { "type": "Polygon", "coordinates": [ [ [ 101.2209403, 3.3888405 ], [ 101.222043, 3.3901954 ], [ 101.2223649, 3.3899477 ], [ 101.222405, 3.3899201 ], [ 101.2230713, 3.3893102 ], [ 101.2230692, 3.3892634 ], [ 101.22272, 3.3891189 ], [ 101.222447, 3.3889563 ], [ 101.2223645, 3.3889064 ], [ 101.2219153, 3.3886811 ], [ 101.2214406, 3.3884495 ], [ 101.2209403, 3.3888405 ] ] ] } },
{ "type": "Feature", "properties": { "school_id": "SCH_004", "school_name": "SMK Saujana Utama", "named": true, "source_type": "area", "source_records": 1 }, "geometry": { "type": "Polygon", "coordinates": [ [ [ 101.4775439, 3.2089159 ], [ 101.477576, 3.2089628 ], [ 101.4776731, 3.2089358 ], [ 101.4776604, 3.2094142 ], [ 101.4791112, 3.2094112 ], [ 101.4791361, 3.2078348 ], [ 101.4775696, 3.2078356 ], [ 101.4775439, 3.2089159 ] ] ] } },
{ "type": "Feature", "properties": { "school_id": "SCH_005", "school_name": "SK Saujana Utama", "named": true, "source_type": "area", "source_records": 1 }, "geometry": { "type": "Polygon", "coordinates": [ [ [ 101.4774996, 3.2102964 ], [ 101.4775016, 3.2107247 ], [ 101.4790978, 3.2107202 ], [ 101.4791112, 3.2094112 ], [ 101.4776604, 3.2094142 ], [ 101.4776261, 3.2097837 ], [ 101.4775345, 3.2097823 ], [ 101.4774996, 3.2102964 ] ] ] } },
{ "type": "Feature", "properties": { "school_id": "SCH_006", "school_name": null, "named": false, "source_type": "area", "source_records": 1 }, "geometry": { "type": "Polygon", "coordinates": [ [ [ 101.4709246, 3.200306 ], [ 101.47105470000001, 3.2005333 ], [ 101.4716116, 3.2008134 ], [ 101.472310900000011, 3.2010691 ], [ 101.4725711, 3.2010285 ], [ 101.4729167, 3.2012599 ], [ 101.4732785, 3.2007931 ], [ 101.4729776, 3.2006064 ], [ 101.472656500000014, 3.2002208 ], [ 101.4723028, 3.2000909 ], [ 101.4714246, 3.199827 ], [ 101.4709246, 3.200306 ] ] ] } },
{ "type": "Feature", "properties": { "school_id": "SCH_007", "school_name": "SK Seri Pristana", "named": true, "source_type": "area", "source_records": 1 }, "geometry": { "type": "Polygon", "coordinates": [ [ [ 101.4699405, 3.2094107 ], [ 101.4714829, 3.2094056 ], [ 101.4714887, 3.2083568 ], [ 101.47150120000002, 3.2083252 ], [ 101.4711285, 3.2081764 ], [ 101.47106, 3.2081474 ], [ 101.4710093, 3.2080821 ], [ 101.4699688, 3.2080892 ], [ 101.4699405, 3.2094107 ] ] ] } },
{ "type": "Feature", "properties": { "school_id": "SCH_008", "school_name": "SJK(C) Tanjong Karang 丹绒加弄华文小学", "named": true, "source_type": "area", "source_records": 1 }, "geometry": { "type": "Polygon", "coordinates": [ [ [ 101.1715937, 3.4259265 ], [ 101.1716866, 3.4267924 ], [ 101.1717277, 3.4268352 ], [ 101.1722562, 3.4268016 ], [ 101.172186, 3.4258806 ], [ 101.1715937, 3.4259265 ] ] ] } },
{ "type": "Feature", "properties": { "school_id": "SCH_009", "school_name": "SJK (C) Yit Khwan 丹绒加弄峇眼益群华文小学", "named": true, "source_type": "area", "source_records": 1 }, "geometry": { "type": "Polygon", "coordinates": [ [ [ 101.1725594, 3.4004263 ], [ 101.1725691, 3.4010949 ], [ 101.1731612, 3.4012499 ], [ 101.1735934, 3.400994 ], [ 101.1726477, 3.3997436 ], [ 101.1725594, 3.4004263 ] ] ] } },
{ "type": "Feature", "properties": { "school_id": "SCH_010", "school_name": "SJK (C) Chung Wah, Sasaran 沙沙兰中华华文小学", "named": true, "source_type": "area", "source_records": 1 }, "geometry": { "type": "Polygon", "coordinates": [ [ [ 101.3106282, 3.2611835 ], [ 101.3111615, 3.2614789 ], [ 101.3118263, 3.2600363 ], [ 101.31199, 3.2596215 ], [ 101.3117057, 3.2595076 ], [ 101.3115649, 3.259497 ], [ 101.3113737, 3.259548 ], [ 101.3109019, 3.260583 ], [ 101.3106282, 3.2611835 ] ] ] } },
{ "type": "Feature", "properties": { "school_id": "SCH_011", "school_name": "SJK(C) Ijok 依约华文小学", "named": true, "source_type": "area", "source_records": 1 }, "geometry": { "type": "Polygon", "coordinates": [ [ [ 101.4151699, 3.3162478 ], [ 101.4165308, 3.3162361 ], [ 101.4165879, 3.3157166 ], [ 101.4152116, 3.3157269 ], [ 101.4151699, 3.3162478 ] ] ] } },
{ "type": "Feature", "properties": { "school_id": "SCH_012", "school_name": "SK Puncak Alam", "named": true, "source_type": "area", "source_records": 1 }, "geometry": { "type": "Polygon", "coordinates": [ [ [ 101.4304949, 3.2131701 ], [ 101.431890700000011, 3.2139715 ], [ 101.4325155, 3.2128621 ], [ 101.4321675, 3.2126173 ], [ 101.4319342, 3.2123923 ], [ 101.4317089, 3.2123568 ], [ 101.4315111, 3.2121159 ], [ 101.4313902, 3.2119034 ], [ 101.4313371, 3.211808 ], [ 101.4311552, 3.211958 ], [ 101.4309309, 3.2123699 ], [ 101.4304949, 3.2131701 ] ] ] } },
{ "type": "Feature", "properties": { "school_id": "SCH_013", "school_name": "SMK Puncak Alam", "named": true, "source_type": "area", "source_records": 1 }, "geometry": { "type": "Polygon", "coordinates": [ [ [ 101.4294984, 3.2118751 ], [ 101.430019700000017, 3.2120552 ], [ 101.4309309, 3.2123699 ], [ 101.4311552, 3.211958 ], [ 101.4313371, 3.211808 ], [ 101.4311434, 3.2113855 ], [ 101.4310894, 3.2112075 ], [ 101.4310524, 3.2110855 ], [ 101.4309378, 3.2103709 ], [ 101.430918, 3.209447 ], [ 101.4301034, 3.2095418 ], [ 101.4299848, 3.2105604 ], [ 101.4299294, 3.2107775 ], [ 101.4294984, 3.2118751 ] ] ] } },
{ "type": "Feature", "properties": { "school_id": "SCH_014", "school_name": "SMK Puncak Alam 3", "named": true, "source_type": "area", "source_records": 1 }, "geometry": { "type": "Polygon", "coordinates": [ [ [ 101.422884, 3.2459567 ], [ 101.4241023, 3.2474937 ], [ 101.4244692, 3.2471915 ], [ 101.424446, 3.2471128 ], [ 101.4244367, 3.2470387 ], [ 101.4244553, 3.2469646 ], [ 101.4245448, 3.2469007 ], [ 101.4245851, 3.2468674 ], [ 101.4245712, 3.2468072 ], [ 101.424599, 3.2467424 ], [ 101.4235336, 3.2454318 ], [ 101.422884, 3.2459567 ] ] ] } },
{ "type": "Feature", "properties": { "school_id": "SCH_015", "school_name": "SK Puncak Alam 3", "named": true, "source_type": "area", "source_records": 1 }, "geometry": { "type": "Polygon", "coordinates": [ [ [ 101.4240501, 3.2450144 ], [ 101.4251043, 3.2463579 ], [ 101.4251843, 3.2462875 ], [ 101.4255866, 3.246006 ], [ 101.4257072, 3.2459736 ], [ 101.425837, 3.2459782 ], [ 101.4246977, 3.244491 ], [ 101.4240501, 3.2450144 ] ] ] } },
{ "type": "Feature", "properties": { "school_id": "SCH_016", "school_name": "SRA Puncak Alam", "named": true, "source_type": "area", "source_records": 1 }, "geometry": { "type": "Polygon", "coordinates": [ [ [ 101.4275242, 3.2258976 ], [ 101.4275767, 3.2259659 ], [ 101.4284107, 3.2270904 ], [ 101.4289213, 3.2267365 ], [ 101.4287917, 3.2265544 ], [ 101.4292142, 3.2262332 ], [ 101.4289838, 3.2258593 ], [ 101.4283116, 3.2255525 ], [ 101.4280043, 3.2255477 ], [ 101.4275242, 3.2258976 ] ] ] } },
{ "type": "Feature", "properties": { "school_id": "SCH_017", "school_name": "SK Puncak Alam 2", "named": true, "source_type": "area", "source_records": 1 }, "geometry": { "type": "Polygon", "coordinates": [ [ [ 101.4252493, 3.2267667 ], [ 101.4259947, 3.2270415 ], [ 101.4262609, 3.2267067 ], [ 101.4262807, 3.2266764 ], [ 101.4263065, 3.2267053 ], [ 101.426384500000012, 3.2266377 ], [ 101.4264178, 3.2265013 ], [ 101.4265838, 3.2263817 ], [ 101.4265678, 3.2263493 ], [ 101.4267572, 3.2261918 ], [ 101.426904, 3.2262075 ], [ 101.4276367, 3.2256658 ], [ 101.4273391, 3.2252391 ], [ 101.4271278, 3.2254117 ], [ 101.4268397, 3.2255555 ], [ 101.4266285, 3.2255938 ], [ 101.4262876, 3.2256034 ], [ 101.4256781, 3.2256602 ], [ 101.4252493, 3.2267667 ] ] ] } },
{ "type": "Feature", "properties": { "school_id": "SCH_018", "school_name": "SK Desa Aman", "named": true, "source_type": "area", "source_records": 1 }, "geometry": { "type": "Polygon", "coordinates": [ [ [ 101.4841841, 3.2346041 ], [ 101.4844728, 3.2346239 ], [ 101.4850066, 3.2346989 ], [ 101.4857263, 3.2347897 ], [ 101.4858747, 3.2339303 ], [ 101.4859517, 3.2333566 ], [ 101.4848603, 3.2332223 ], [ 101.4841841, 3.2346041 ] ] ] } },
{ "type": "Feature", "properties": { "school_id": "SCH_019", "school_name": null, "named": false, "source_type": "area", "source_records": 1 }, "geometry": { "type": "Polygon", "coordinates": [ [ [ 101.32073960000001, 3.3637555 ], [ 101.3218027, 3.365263 ], [ 101.3229049, 3.3647298 ], [ 101.3218452, 3.363101 ], [ 101.32073960000001, 3.3637555 ] ] ] } },
{ "type": "Feature", "properties": { "school_id": "SCH_020", "school_name": "SJK(C) Aik Thee 瓜雪益智华文小学", "named": true, "source_type": "area", "source_records": 1 }, "geometry": { "type": "Polygon", "coordinates": [ [ [ 101.2428833, 3.3461045 ], [ 101.2437611, 3.3479939 ], [ 101.244506500000014, 3.34961 ], [ 101.2449979, 3.3493842 ], [ 101.2442683, 3.3478018 ], [ 101.2441771, 3.347604 ], [ 101.2433726, 3.3458984 ], [ 101.2428833, 3.3461045 ] ] ] } },
{ "type": "Feature", "properties": { "school_id": "SCH_021", "school_name": "SK Bukit Cerakah", "named": true, "source_type": "area", "source_records": 1 }, "geometry": { "type": "Polygon", "coordinates": [ [ [ 101.4329632, 3.2056534 ], [ 101.4332646, 3.2057331 ], [ 101.4335609, 3.2057826 ], [ 101.4341873, 3.2057318 ], [ 101.434522900000019, 3.2056944 ], [ 101.4346755, 3.2053796 ], [ 101.4348672, 3.2050751 ], [ 101.4352535, 3.2045052 ], [ 101.4353701, 3.2043472 ], [ 101.4357546, 3.2039615 ], [ 101.4354063, 3.2036323 ], [ 101.4350402, 3.2038866 ], [ 101.4349745, 3.2039094 ], [ 101.4349075, 3.2038813 ], [ 101.4348847, 3.2038451 ], [ 101.4348927, 3.2037701 ], [ 101.4349128, 3.203734 ], [ 101.4349075, 3.2036416 ], [ 101.4348431, 3.2035612 ], [ 101.4348525, 3.2035211 ], [ 101.4349457, 3.2032526 ], [ 101.4346208, 3.2030437 ], [ 101.4342678, 3.2035345 ], [ 101.4329632, 3.2056534 ] ] ] } },
{ "type": "Feature", "properties": { "school_id": "SCH_022", "school_name": null, "named": false, "source_type": "area", "source_records": 1 }, "geometry": { "type": "Polygon", "coordinates": [ [ [ 101.1296326, 3.454669 ], [ 101.1320312, 3.4558114 ], [ 101.1329156, 3.4549795 ], [ 101.1306947, 3.4537587 ], [ 101.1296326, 3.454669 ] ] ] } },
{ "type": "Feature", "properties": { "school_id": "SCH_023", "school_name": "SMK Tiram Jaya", "named": true, "source_type": "area", "source_records": 1 }, "geometry": { "type": "Polygon", "coordinates": [ [ [ 101.2355744, 3.4354443 ], [ 101.2374058, 3.4354485 ], [ 101.2374107, 3.4333117 ], [ 101.2355793, 3.4333075 ], [ 101.2355744, 3.4354443 ] ] ] } },
{ "type": "Feature", "properties": { "school_id": "SCH_024", "school_name": "SMK Dato Harun", "named": true, "source_type": "area", "source_records": 1 }, "geometry": { "type": "Polygon", "coordinates": [ [ [ 101.1689798, 3.4251878 ], [ 101.1691078, 3.4269435 ], [ 101.1716254, 3.4267609 ], [ 101.17149910000002, 3.4250162 ], [ 101.170817500000013, 3.4250774 ], [ 101.1689798, 3.4251878 ] ] ] } },
{ "type": "Feature", "properties": { "school_id": "SCH_025", "school_name": "SMK Sultan Sulaiman Shah", "named": true, "source_type": "area", "source_records": 1 }, "geometry": { "type": "Polygon", "coordinates": [ [ [ 101.405784, 3.3740822 ], [ 101.4062709, 3.3763836 ], [ 101.4077383, 3.3760138 ], [ 101.4072147, 3.3737392 ], [ 101.4062762, 3.3737161 ], [ 101.4058068, 3.3738366 ], [ 101.405784, 3.3740822 ] ] ] } },
{ "type": "Feature", "properties": { "school_id": "SCH_026", "school_name": "Sekolah Kebangsaan Tambak Jawa", "named": true, "source_type": "area", "source_records": 1 }, "geometry": { "type": "Polygon", "coordinates": [ [ [ 101.3135988, 3.182526 ], [ 101.3153902, 3.1828118 ], [ 101.3154994, 3.1818878 ], [ 101.3137053, 3.1816004 ], [ 101.3135988, 3.182526 ] ] ] } },
{ "type": "Feature", "properties": { "school_id": "SCH_027", "school_name": "SJK (C) Pui Chi, Assam Jawa 亚三爪哇培志华文小学", "named": true, "source_type": "area", "source_records": 1 }, "geometry": { "type": "Polygon", "coordinates": [ [ [ 101.2875641, 3.3003184 ], [ 101.2883998, 3.3009521 ], [ 101.2887811, 3.30047 ], [ 101.2878163, 3.2998986 ], [ 101.2875641, 3.3003184 ] ] ] } },
{ "type": "Feature", "properties": { "school_id": "SCH_028", "school_name": null, "named": false, "source_type": "area", "source_records": 1 }, "geometry": { "type": "Polygon", "coordinates": [ [ [ 101.4168411, 3.3177595 ], [ 101.4185685, 3.3177898 ], [ 101.4186106, 3.3172358 ], [ 101.417454, 3.3172599 ], [ 101.4168836, 3.3172718 ], [ 101.4168411, 3.3177595 ] ] ] } },
{ "type": "Feature", "properties": { "school_id": "SCH_029", "school_name": "SJK (T) Ladang Kuala Selangor", "named": true, "source_type": "area", "source_records": 1 }, "geometry": { "type": "Polygon", "coordinates": [ [ [ 101.3067279, 3.3103082 ], [ 101.3072591, 3.3104771 ], [ 101.3074927, 3.3097453 ], [ 101.3069614, 3.3095763 ], [ 101.3067279, 3.3103082 ] ] ] } },
{ "type": "Feature", "properties": { "school_id": "SCH_030", "school_name": "SMK Bandar Saujana Utama (2)", "named": true, "source_type": "area", "source_records": 1 }, "geometry": { "type": "Polygon", "coordinates": [ [ [ 101.4850043, 3.2094232 ], [ 101.485320200000018, 3.2099689 ], [ 101.4854852, 3.2098752 ], [ 101.4854733, 3.2097335 ], [ 101.4861644, 3.2092483 ], [ 101.4862914, 3.2093615 ], [ 101.4868091, 3.2090152 ], [ 101.4871192, 3.2086067 ], [ 101.487041, 3.2082843 ], [ 101.4862262, 3.2076451 ], [ 101.4860681, 3.2077648 ], [ 101.4854841, 3.2079432 ], [ 101.4850499, 3.2080009 ], [ 101.4850043, 3.2094232 ] ] ] } },
{ "type": "Feature", "properties": { "school_id": "SCH_031", "school_name": "Wesley Methodist School Bandar Seri Coalfields", "named": true, "source_type": "area", "source_records": 1 }, "geometry": { "type": "Polygon", "coordinates": [ [ [ 101.4811743, 3.2472 ], [ 101.4822193, 3.2472094 ], [ 101.4822791, 3.2472176 ], [ 101.4823186, 3.2472298 ], [ 101.482443700000019, 3.2473275 ], [ 101.482494, 3.2473289 ], [ 101.4827129, 3.2473859 ], [ 101.482904600000012, 3.2474714 ], [ 101.4829577, 3.2474416 ], [ 101.4830379, 3.2467967 ], [ 101.4827046, 3.2467937 ], [ 101.4827085, 3.2462807 ], [ 101.4816865, 3.2462139 ], [ 101.4816776, 3.2471088 ], [ 101.4811752, 3.2471038 ], [ 101.4811743, 3.2472 ] ] ] } },
{ "type": "Feature", "properties": { "school_id": "SCH_032", "school_name": "SMS Kuala Selangor", "named": true, "source_type": "area", "source_records": 1 }, "geometry": { "type": "Polygon", "coordinates": [ [ [ 101.2547019, 3.3224797 ], [ 101.255697, 3.3235052 ], [ 101.2568705, 3.3247356 ], [ 101.2581485, 3.3234597 ], [ 101.2589934, 3.3226483 ], [ 101.2599134, 3.3216924 ], [ 101.2599215, 3.3213068 ], [ 101.2590846, 3.3204178 ], [ 101.2586367, 3.3208463 ], [ 101.2583336, 3.320857 ], [ 101.2575719, 3.3201688 ], [ 101.2575209, 3.3202143 ], [ 101.2573063, 3.3199974 ], [ 101.257223200000013, 3.3199814 ], [ 101.256035, 3.3211595 ], [ 101.2547019, 3.3224797 ] ] ] } },
{ "type": "Feature", "properties": { "school_id": "SCH_033", "school_name": "SJK (C) Ming Tee 民智华文小学", "named": true, "source_type": "area", "source_records": 1 }, "geometry": { "type": "Polygon", "coordinates": [ [ [ 101.2458536, 3.4253565 ], [ 101.2458614, 3.4264123 ], [ 101.2474267, 3.4264006 ], [ 101.247419, 3.4253452 ], [ 101.2458536, 3.4253565 ] ] ] } },
{ "type": "Feature", "properties": { "school_id": "SCH_034", "school_name": "Sekolah Agama Rendah Kafa (1) Felda Bukit Cherakah", "named": true, "source_type": "area", "source_records": 1 }, "geometry": { "type": "Polygon", "coordinates": [ [ [ 101.43224, 3.204686 ], [ 101.432342, 3.2049672 ], [ 101.4327255, 3.2048534 ], [ 101.4327496, 3.2049043 ], [ 101.4332057, 3.2047771 ], [ 101.4331265, 3.2046619 ], [ 101.4330795, 3.2046043 ], [ 101.433036, 3.2045568 ], [ 101.4329749, 3.20453 ], [ 101.4329119, 3.204526 ], [ 101.4326765, 3.2043272 ], [ 101.4325337, 3.2044557 ], [ 101.4324962, 3.2044704 ], [ 101.4324425, 3.2044651 ], [ 101.4323929, 3.2045199 ], [ 101.4322896, 3.2045962 ], [ 101.4322467, 3.2046217 ], [ 101.43224, 3.204686 ] ] ] } },
{ "type": "Feature", "properties": { "school_id": "SCH_035", "school_name": "Sekolah Kebangsaan Tanjung Keramat", "named": true, "source_type": "area", "source_records": 1 }, "geometry": { "type": "Polygon", "coordinates": [ [ [ 101.2433726, 3.3458984 ], [ 101.2441771, 3.347604 ], [ 101.2454718, 3.3469949 ], [ 101.244686, 3.345313 ], [ 101.2433726, 3.3458984 ] ] ] } },
{ "type": "Feature", "properties": { "school_id": "SCH_036", "school_name": "Kolej Tingkatan Enam Sultan Abdul Aziz", "named": true, "source_type": "area", "source_records": 1 }, "geometry": { "type": "Polygon", "coordinates": [ [ [ 101.2419092, 3.3437635 ], [ 101.2420706, 3.3440593 ], [ 101.242409200000012, 3.3440672 ], [ 101.2425203, 3.3443392 ], [ 101.2429197, 3.3442917 ], [ 101.2433377, 3.34398 ], [ 101.2433933, 3.3436077 ], [ 101.2435256, 3.3436843 ], [ 101.2439092, 3.3436182 ], [ 101.2442727, 3.3424299 ], [ 101.2441119, 3.3423098 ], [ 101.24410180000001, 3.3422375 ], [ 101.24400540000002, 3.3421912 ], [ 101.2439508, 3.3420223 ], [ 101.2433152, 3.3420215 ], [ 101.2433141, 3.3419446 ], [ 101.2431664, 3.3419437 ], [ 101.2430343, 3.3419999 ], [ 101.2423044, 3.341997 ], [ 101.2423128, 3.3423828 ], [ 101.2421318, 3.3426116 ], [ 101.2419092, 3.3437635 ] ] ] } },
{ "type": "Feature", "properties": { "school_id": "SCH_037", "school_name": "Sekolah Jenis Kebangsaan (Cina) Liat Choon", "named": true, "source_type": "area", "source_records": 1 }, "geometry": { "type": "Polygon", "coordinates": [ [ [ 101.315218, 3.1966174 ], [ 101.3152322, 3.1970749 ], [ 101.3170121, 3.19702 ], [ 101.3169979, 3.1965623 ], [ 101.315218, 3.1966174 ] ] ] } },
{ "type": "Feature", "properties": { "school_id": "SCH_038", "school_name": "Maahad Tahfiz Al-Quran Hira'", "named": true, "source_type": "area", "source_records": 1 }, "geometry": { "type": "Polygon", "coordinates": [ [ [ 101.3171007, 3.2097331 ], [ 101.3189034, 3.2098333 ], [ 101.3190061, 3.2079939 ], [ 101.317155, 3.2078547 ], [ 101.3171007, 3.2097331 ] ] ] } },
{ "type": "Feature", "properties": { "school_id": "SCH_039", "school_name": "Sekolah Rendah Agama Sungai Sembilang", "named": true, "source_type": "area", "source_records": 1 }, "geometry": { "type": "Polygon", "coordinates": [ [ [ 101.3147401, 3.2046214 ], [ 101.3147678, 3.2050135 ], [ 101.3151213, 3.2049919 ], [ 101.3151111, 3.2045824 ], [ 101.3147401, 3.2046214 ] ] ] } },
{ "type": "Feature", "properties": { "school_id": "SCH_040", "school_name": "Maahad / Sek. Men. Hafiz (Banat) Jeram", "named": true, "source_type": "area", "source_records": 1 }, "geometry": { "type": "Polygon", "coordinates": [ [ [ 101.3153088, 3.2281223 ], [ 101.3153425, 3.2295245 ], [ 101.316106, 3.2295062 ], [ 101.3160726, 3.2281041 ], [ 101.3153088, 3.2281223 ] ] ] } },
{ "type": "Feature", "properties": { "school_id": "SCH_041", "school_name": "Sekolah Kebangsaan Jeram Batu 20", "named": true, "source_type": "area", "source_records": 1 }, "geometry": { "type": "Polygon", "coordinates": [ [ [ 101.3115132, 3.2369986 ], [ 101.3115334, 3.2377779 ], [ 101.3127825, 3.2377457 ], [ 101.3127715, 3.2373219 ], [ 101.3151866, 3.2372375 ], [ 101.3151807, 3.2368733 ], [ 101.3115132, 3.2369986 ] ] ] } },
{ "type": "Feature", "properties": { "school_id": "SCH_042", "school_name": "Sekolah Agama Menengah Jeram", "named": true, "source_type": "area", "source_records": 1 }, "geometry": { "type": "Polygon", "coordinates": [ [ [ 101.3155248, 3.2385996 ], [ 101.3155711, 3.2409668 ], [ 101.3173406, 3.2409323 ], [ 101.3172944, 3.2385651 ], [ 101.3155248, 3.2385996 ] ] ] } },
{ "type": "Feature", "properties": { "school_id": "SCH_043", "school_name": "Sekolah Jenis Kebangsaan (Cina) Pui Teh", "named": true, "source_type": "area", "source_records": 1 }, "geometry": { "type": "Polygon", "coordinates": [ [ [ 101.31778, 3.2250093 ], [ 101.3180119, 3.2259834 ], [ 101.3184064, 3.2258673 ], [ 101.3182388, 3.2249565 ], [ 101.31778, 3.2250093 ] ] ] } },
{ "type": "Feature", "properties": { "school_id": "SCH_044", "school_name": "Sekolah Kebangsaan Jeram", "named": true, "source_type": "area", "source_records": 1 }, "geometry": { "type": "Polygon", "coordinates": [ [ [ 101.319935, 3.2204232 ], [ 101.3199988, 3.2228263 ], [ 101.3205324, 3.2226361 ], [ 101.3205609, 3.2225027 ], [ 101.3205214, 3.2204155 ], [ 101.319935, 3.2204232 ] ] ] } },
{ "type": "Feature", "properties": { "school_id": "SCH_045", "school_name": "S.A.R. Kafa Integrasi Puncak Alam 2", "named": true, "source_type": "area", "source_records": 3 }, "geometry": { "type": "MultiPolygon", "coordinates": [ [ [ [ 101.4251899, 3.2272925 ], [ 101.425238400000012, 3.2271648 ], [ 101.4251957, 3.2271482 ], [ 101.4251814, 3.2271427 ], [ 101.4251329, 3.2272704 ], [ 101.4251899, 3.2272925 ] ] ], [ [ [ 101.425126300000016, 3.2274641 ], [ 101.425165, 3.2273632 ], [ 101.4250973, 3.2273388 ], [ 101.4250618, 3.2274417 ], [ 101.4250944, 3.2274529 ], [ 101.425126300000016, 3.2274641 ] ] ], [ [ [ 101.4249786, 3.2278655 ], [ 101.4249269, 3.2278444 ], [ 101.4248801, 3.2279587 ], [ 101.4249317, 3.2279798 ], [ 101.4249786, 3.2278655 ] ] ] ] } },
{ "type": "Feature", "properties": { "school_id": "SCH_046", "school_name": "SJK (T) Ladang Coalfields", "named": true, "source_type": "area", "source_records": 1 }, "geometry": { "type": "Polygon", "coordinates": [ [ [ 101.4800369, 3.2450712 ], [ 101.4807676, 3.2451717 ], [ 101.4808829, 3.2443666 ], [ 101.4809003, 3.2442447 ], [ 101.4808637, 3.2442264 ], [ 101.4807384, 3.2442862 ], [ 101.4803868, 3.2445209 ], [ 101.480324, 3.2446551 ], [ 101.480221, 3.2447732 ], [ 101.4802365, 3.2447875 ], [ 101.4800369, 3.2450712 ] ] ] } },
{ "type": "Feature", "properties": { "school_id": "SCH_047", "school_name": "Maahad Tahfiz Ismail", "named": true, "source_type": "area", "source_records": 1 }, "geometry": { "type": "Polygon", "coordinates": [ [ [ 101.436329, 3.2074511 ], [ 101.4371335, 3.2074341 ], [ 101.437996, 3.2072944 ], [ 101.4381047, 3.2072743 ], [ 101.438098, 3.207206 ], [ 101.4384746, 3.2071462 ], [ 101.4384039, 3.2061173 ], [ 101.4384833, 3.2056226 ], [ 101.4385662, 3.2050645 ], [ 101.4381265, 3.2050374 ], [ 101.437863900000011, 3.2049325 ], [ 101.4378262, 3.2049469 ], [ 101.4376044, 3.204595 ], [ 101.43712410000002, 3.2038111 ], [ 101.4367407, 3.2032909 ], [ 101.4365129, 3.2034598 ], [ 101.4367878, 3.203934 ], [ 101.436726, 3.2040781 ], [ 101.4366871, 3.2042294 ], [ 101.4366871, 3.204378 ], [ 101.436727, 3.2045289 ], [ 101.4366268, 3.2047489 ], [ 101.436549, 3.205006 ], [ 101.4364219, 3.2052192 ], [ 101.4364403, 3.2058081 ], [ 101.4364658, 3.2059822 ], [ 101.4365025, 3.2063909 ], [ 101.4364112, 3.2069219 ], [ 101.436329, 3.2074511 ] ] ] } },
{ "type": "Feature", "properties": { "school_id": "SCH_048", "school_name": "Sekolah Kebangsaan Bukit Badong", "named": true, "source_type": "area", "source_records": 1 }, "geometry": { "type": "Polygon", "coordinates": [ [ [ 101.4122875, 3.3332995 ], [ 101.4123528, 3.3340696 ], [ 101.4144492, 3.3341192 ], [ 101.414598500000011, 3.3338398 ], [ 101.4146581, 3.3328931 ], [ 101.413011, 3.3328716 ], [ 101.4128919, 3.333014 ], [ 101.4123642, 3.332866 ], [ 101.4122875, 3.3332995 ] ] ] } },
{ "type": "Feature", "properties": { "school_id": "SCH_049", "school_name": "SK Jaya Setia", "named": true, "source_type": "area", "source_records": 1 }, "geometry": { "type": "Polygon", "coordinates": [ [ [ 101.4198501, 3.3645509 ], [ 101.421596, 3.3651934 ], [ 101.4220213, 3.3640303 ], [ 101.420945, 3.3638346 ], [ 101.4200249, 3.3637403 ], [ 101.4198501, 3.3645509 ] ] ] } },
{ "type": "Feature", "properties": { "school_id": "SCH_050", "school_name": "SMK Raja Muda Musa", "named": true, "source_type": "area", "source_records": 1 }, "geometry": { "type": "Polygon", "coordinates": [ [ [ 101.407182, 3.3730089 ], [ 101.4076504, 3.3743613 ], [ 101.4084576, 3.3741659 ], [ 101.4087721, 3.3754196 ], [ 101.4088491, 3.3754767 ], [ 101.409742, 3.375233 ], [ 101.4094627, 3.3742933 ], [ 101.4094561, 3.3739793 ], [ 101.4096386, 3.3724007 ], [ 101.407182, 3.3730089 ] ] ] } },
{ "type": "Feature", "properties": { "school_id": "SCH_051", "school_name": "SK Rantau Panjang", "named": true, "source_type": "area", "source_records": 1 }, "geometry": { "type": "Polygon", "coordinates": [ [ [ 101.4392268, 3.399021 ], [ 101.4399148, 3.3999884 ], [ 101.4410762, 3.3984672 ], [ 101.440551, 3.3979318 ], [ 101.4392268, 3.399021 ] ] ] } },
{ "type": "Feature", "properties": { "school_id": "SCH_052", "school_name": "SK Bestari Jaya", "named": true, "source_type": "area", "source_records": 1 }, "geometry": { "type": "Polygon", "coordinates": [ [ [ 101.3990149, 3.3822166 ], [ 101.3996919, 3.3825065 ], [ 101.400024, 3.3817262 ], [ 101.40049, 3.3819238 ], [ 101.401151, 3.3803702 ], [ 101.4000098, 3.3798917 ], [ 101.3994568, 3.3811637 ], [ 101.3994495, 3.3813095 ], [ 101.3992636, 3.3817304 ], [ 101.3991334, 3.3819335 ], [ 101.3990149, 3.3822166 ] ] ] } },
{ "type": "Feature", "properties": { "school_id": "SCH_053", "school_name": "SJK (C) Liat Choon (Cawangan)", "named": true, "source_type": "area", "source_records": 1 }, "geometry": { "type": "Polygon", "coordinates": [ [ [ 101.3145475, 3.1734062 ], [ 101.3149524, 3.1734779 ], [ 101.3150946, 3.1726775 ], [ 101.3146899, 3.1726058 ], [ 101.3145475, 3.1734062 ] ] ] } },
{ "type": "Feature", "properties": { "school_id": "SCH_054", "school_name": null, "named": false, "source_type": "area", "source_records": 1 }, "geometry": { "type": "Polygon", "coordinates": [ [ [ 101.4147728, 3.335199 ], [ 101.4160546, 3.3352943 ], [ 101.4160891, 3.3345976 ], [ 101.4148449, 3.334466 ], [ 101.4147728, 3.335199 ] ] ] } },
{ "type": "Feature", "properties": { "school_id": "SCH_055", "school_name": "SK Jalan Raja Musa", "named": true, "source_type": "area", "source_records": 1 }, "geometry": { "type": "Polygon", "coordinates": [ [ [ 101.3182764, 3.4071994 ], [ 101.318321, 3.408262 ], [ 101.3185694, 3.4082533 ], [ 101.3186506, 3.408206 ], [ 101.3189173, 3.4081954 ], [ 101.3189122, 3.4080656 ], [ 101.3191853, 3.4080548 ], [ 101.31915, 3.4071628 ], [ 101.3182764, 3.4071994 ] ] ] } },
{ "type": "Feature", "properties": { "school_id": "SCH_056", "school_name": "SMK Jeram", "named": true, "source_type": "area", "source_records": 1 }, "geometry": { "type": "Polygon", "coordinates": [ [ [ 101.3682493, 3.2272475 ], [ 101.3690699, 3.2273737 ], [ 101.3690147, 3.2277317 ], [ 101.3706703, 3.2279863 ], [ 101.3707181, 3.2276766 ], [ 101.3705954, 3.2276577 ], [ 101.3708235, 3.226179 ], [ 101.3684699, 3.2258171 ], [ 101.3682493, 3.2272475 ] ] ] } },
{ "type": "Feature", "properties": { "school_id": "SCH_057", "school_name": "Kafa Integrasi Puncak Alam 1", "named": true, "source_type": "area", "source_records": 1 }, "geometry": { "type": "Polygon", "coordinates": [ [ [ 101.4332271, 3.2193239 ], [ 101.4337809, 3.219496 ], [ 101.4337925, 3.2190937 ], [ 101.4334293, 3.2189804 ], [ 101.4332941, 3.2189651 ], [ 101.4332271, 3.2193239 ] ] ] } },
{ "type": "Feature", "properties": { "school_id": "SCH_058", "school_name": "SRA Bandar Malawati", "named": true, "source_type": "area", "source_records": 1 }, "geometry": { "type": "Polygon", "coordinates": [ [ [ 101.250424, 3.3292086 ], [ 101.250808, 3.3295847 ], [ 101.2521872, 3.3281812 ], [ 101.2518032, 3.3278051 ], [ 101.250424, 3.3292086 ] ] ] } },
{ "type": "Feature", "properties": { "school_id": "SCH_059", "school_name": "SJK (C) Khai Tee 巴西不南邦启智华文小学", "named": true, "source_type": "area", "source_records": 1 }, "geometry": { "type": "Polygon", "coordinates": [ [ [ 101.2517302, 3.3558251 ], [ 101.2521407, 3.3561403 ], [ 101.2524103, 3.3558033 ], [ 101.2526241, 3.3553765 ], [ 101.2526389, 3.3553285 ], [ 101.2526824, 3.3551874 ], [ 101.2520144, 3.3549837 ], [ 101.2517302, 3.3558251 ] ] ] } },
{ "type": "Feature", "properties": { "school_id": "SCH_060", "school_name": "SJK (T) Ladang Hopeful", "named": true, "source_type": "area", "source_records": 1 }, "geometry": { "type": "Polygon", "coordinates": [ [ [ 101.4595816, 3.4475738 ], [ 101.460088, 3.4475952 ], [ 101.4600279, 3.4467727 ], [ 101.4597211, 3.446777 ], [ 101.459701900000013, 3.4470181 ], [ 101.4597547, 3.4470785 ], [ 101.4595816, 3.4475738 ] ] ] } },
{ "type": "Feature", "properties": { "school_id": "SCH_061", "school_name": "SJK (C) Yuk Chih 八丁燕带育智华文小学", "named": true, "source_type": "area", "source_records": 1 }, "geometry": { "type": "Polygon", "coordinates": [ [ [ 101.404153, 3.3787897 ], [ 101.4047074, 3.3807601 ], [ 101.4056209, 3.380541 ], [ 101.4050859, 3.378561 ], [ 101.404153, 3.3787897 ] ] ] } },
{ "type": "Feature", "properties": { "school_id": "SCH_062", "school_name": "SJK (T) Bukit Rotan Baru", "named": true, "source_type": "area", "source_records": 1 }, "geometry": { "type": "Polygon", "coordinates": [ [ [ 101.343919, 3.3054096 ], [ 101.3440814, 3.3063571 ], [ 101.3449457, 3.30624 ], [ 101.3449403, 3.3053213 ], [ 101.343919, 3.3054096 ] ] ] } },
{ "type": "Feature", "properties": { "school_id": "SCH_063", "school_name": "SK Assam Jawa", "named": true, "source_type": "area", "source_records": 1 }, "geometry": { "type": "Polygon", "coordinates": [ [ [ 101.2915093, 3.2917231 ], [ 101.2923805, 3.2921943 ], [ 101.292168100000012, 3.2927042 ], [ 101.29328, 3.2932547 ], [ 101.2936932, 3.2917397 ], [ 101.292487600000015, 3.2912501 ], [ 101.2921302, 3.2912752 ], [ 101.2916724, 3.2910504 ], [ 101.2915093, 3.2917231 ] ] ] } },
{ "type": "Feature", "properties": { "school_id": "SCH_064", "school_name": null, "named": false, "source_type": "area", "source_records": 1 }, "geometry": { "type": "Polygon", "coordinates": [ [ [ 101.4006374, 3.2107614 ], [ 101.4006412, 3.2115898 ], [ 101.40164110000002, 3.2115462 ], [ 101.4016158, 3.2101777 ], [ 101.4015928, 3.2101456 ], [ 101.4006374, 3.2107614 ] ] ] } },
{ "type": "Feature", "properties": { "school_id": "SCH_065", "school_name": null, "named": false, "source_type": "area", "source_records": 1 }, "geometry": { "type": "Polygon", "coordinates": [ [ [ 101.3995886, 3.208557 ], [ 101.3995931, 3.209686 ], [ 101.4001702, 3.2096836 ], [ 101.4001655, 3.2085547 ], [ 101.3995886, 3.208557 ] ] ] } },
{ "type": "Feature", "properties": { "school_id": "SCH_066", "school_name": "SJK (T) Ladang Riverside", "named": true, "source_type": "area", "source_records": 1 }, "geometry": { "type": "Polygon", "coordinates": [ [ [ 101.2756491, 3.3970233 ], [ 101.2756902, 3.3982454 ], [ 101.2764653, 3.3982195 ], [ 101.276435, 3.3973169 ], [ 101.2765763, 3.3973121 ], [ 101.2765656, 3.3969926 ], [ 101.2756491, 3.3970233 ] ] ] } },
{ "type": "Feature", "properties": { "school_id": "SCH_067", "school_name": "Pondok Nurul Hasanah (Wargamas)", "named": true, "source_type": "area", "source_records": 1 }, "geometry": { "type": "Polygon", "coordinates": [ [ [ 101.2681134, 3.3859672 ], [ 101.2684768, 3.3867427 ], [ 101.2701572, 3.3854114 ], [ 101.2699171, 3.384809 ], [ 101.2681134, 3.3859672 ] ] ] } },
{ "type": "Feature", "properties": { "school_id": "SCH_068", "school_name": "SK Bukit Belimbing", "named": true, "source_type": "area", "source_records": 1 }, "geometry": { "type": "Polygon", "coordinates": [ [ [ 101.268273400000012, 3.3838438 ], [ 101.2690436, 3.3850187 ], [ 101.2697604, 3.3845627 ], [ 101.2691336, 3.3831216 ], [ 101.2685568, 3.3834677 ], [ 101.268273400000012, 3.3838438 ] ] ] } },
{ "type": "Feature", "properties": { "school_id": "SCH_069", "school_name": "SJK (T) Ghandiji", "named": true, "source_type": "area", "source_records": 1 }, "geometry": { "type": "Polygon", "coordinates": [ [ [ 101.1156267, 3.4854885 ], [ 101.1165259, 3.486231 ], [ 101.1174428, 3.4852024 ], [ 101.1166991, 3.4844897 ], [ 101.1161215, 3.4849873 ], [ 101.1159825, 3.4850076 ], [ 101.115691, 3.4852961 ], [ 101.1156267, 3.4854885 ] ] ] } },
{ "type": "Feature", "properties": { "school_id": "SCH_070", "school_name": "SK Parit 4", "named": true, "source_type": "area", "source_records": 1 }, "geometry": { "type": "Polygon", "coordinates": [ [ [ 101.11801, 3.4819013 ], [ 101.1191732, 3.4830277 ], [ 101.1198819, 3.4822985 ], [ 101.1187185, 3.4811722 ], [ 101.11801, 3.4819013 ] ] ] } },
{ "type": "Feature", "properties": { "school_id": "SCH_071", "school_name": "SK Sungai Sireh", "named": true, "source_type": "area", "source_records": 1 }, "geometry": { "type": "Polygon", "coordinates": [ [ [ 101.1716135, 3.4699219 ], [ 101.1723066, 3.4706206 ], [ 101.1729925, 3.4699428 ], [ 101.1727849, 3.4697335 ], [ 101.1733296, 3.4691954 ], [ 101.1728442, 3.4687058 ], [ 101.1716135, 3.4699219 ] ] ] } },
{ "type": "Feature", "properties": { "school_id": "SCH_072", "school_name": "SK Sungai Burong", "named": true, "source_type": "area", "source_records": 1 }, "geometry": { "type": "Polygon", "coordinates": [ [ [ 101.1368375, 3.4619725 ], [ 101.1380924, 3.4633205 ], [ 101.1393639, 3.4620596 ], [ 101.1380918, 3.4608211 ], [ 101.1368375, 3.4619725 ] ] ] } },
{ "type": "Feature", "properties": { "school_id": "SCH_073", "school_name": "SAM Tanjong Karang", "named": true, "source_type": "area", "source_records": 1 }, "geometry": { "type": "Polygon", "coordinates": [ [ [ 101.1584663, 3.4280284 ], [ 101.1590548, 3.4297769 ], [ 101.1615307, 3.4289464 ], [ 101.1609422, 3.4271982 ], [ 101.1584663, 3.4280284 ] ] ] } },
{ "type": "Feature", "properties": { "school_id": "SCH_074", "school_name": "SMK Seri Desa", "named": true, "source_type": "area", "source_records": 1 }, "geometry": { "type": "Polygon", "coordinates": [ [ [ 101.1633686, 3.4206524 ], [ 101.1647086, 3.4223035 ], [ 101.1652317, 3.4219147 ], [ 101.165413, 3.4220093 ], [ 101.1664444, 3.4220105 ], [ 101.1663318, 3.4209112 ], [ 101.1666614, 3.4208742 ], [ 101.166654, 3.4207541 ], [ 101.1666367, 3.4204712 ], [ 101.163648, 3.4204433 ], [ 101.1633686, 3.4206524 ] ] ] } },
{ "type": "Feature", "properties": { "school_id": "SCH_075", "school_name": "SK Batu 9", "named": true, "source_type": "area", "source_records": 1 }, "geometry": { "type": "Polygon", "coordinates": [ [ [ 101.1663318, 3.4209112 ], [ 101.1664444, 3.4220105 ], [ 101.1665378, 3.4229224 ], [ 101.1682023, 3.4225892 ], [ 101.1680622, 3.420755 ], [ 101.166654, 3.4207541 ], [ 101.1666614, 3.4208742 ], [ 101.1663318, 3.4209112 ] ] ] } },
{ "type": "Feature", "properties": { "school_id": "SCH_076", "school_name": "SK Tanjong Karang", "named": true, "source_type": "area", "source_records": 1 }, "geometry": { "type": "Polygon", "coordinates": [ [ [ 101.1858962, 3.4197195 ], [ 101.1859811, 3.4204192 ], [ 101.1873437, 3.4202374 ], [ 101.1863908, 3.4191197 ], [ 101.186102500000018, 3.4193257 ], [ 101.1859569, 3.4195195 ], [ 101.1858962, 3.4197195 ] ] ] } },
{ "type": "Feature", "properties": { "school_id": "SCH_077", "school_name": "SMK Pengkalan Permatang", "named": true, "source_type": "area", "source_records": 1 }, "geometry": { "type": "Polygon", "coordinates": [ [ [ 101.2423232, 3.3624607 ], [ 101.2423946, 3.3629185 ], [ 101.2440114, 3.363076 ], [ 101.2453484, 3.3631563 ], [ 101.2457741, 3.3633703 ], [ 101.2464262, 3.3634089 ], [ 101.2466228, 3.3631474 ], [ 101.2466528, 3.362844 ], [ 101.2460788, 3.3630689 ], [ 101.2458991, 3.3630368 ], [ 101.2462331, 3.3621487 ], [ 101.2457433, 3.3619422 ], [ 101.2440968, 3.3617829 ], [ 101.2440968, 3.3614276 ], [ 101.2434301, 3.3610082 ], [ 101.2425197, 3.3621249 ], [ 101.2423232, 3.3624607 ] ] ] } },
{ "type": "Feature", "properties": { "school_id": "SCH_078", "school_name": null, "named": false, "source_type": "area", "source_records": 1 }, "geometry": { "type": "Polygon", "coordinates": [ [ [ 101.2482829, 3.3648561 ], [ 101.2489051, 3.3658253 ], [ 101.24905, 3.3660101 ], [ 101.2491439, 3.3660583 ], [ 101.2493236, 3.3660824 ], [ 101.2497044, 3.3661038 ], [ 101.2499592, 3.3660529 ], [ 101.2502248, 3.3658628 ], [ 101.2504903, 3.3656995 ], [ 101.2505011, 3.3655549 ], [ 101.2504474, 3.3653889 ], [ 101.2503964, 3.3652282 ], [ 101.2504474, 3.3648587 ], [ 101.2501094, 3.3647784 ], [ 101.2484358, 3.3647329 ], [ 101.2482829, 3.3648561 ] ] ] } },
{ "type": "Feature", "properties": { "school_id": "SCH_079", "school_name": "Sekolah Menengah Kebangsaan Seri Tanjung", "named": true, "source_type": "area", "source_records": 1 }, "geometry": { "type": "Polygon", "coordinates": [ [ [ 101.2414615, 3.3445158 ], [ 101.2415015, 3.3455032 ], [ 101.24156450000001, 3.346598 ], [ 101.2431095, 3.3458996 ], [ 101.2431739, 3.3455569 ], [ 101.24335840000002, 3.3454027 ], [ 101.2436502, 3.3450899 ], [ 101.2432211, 3.3447815 ], [ 101.2428906, 3.3444901 ], [ 101.2414615, 3.3445158 ] ] ] } },
{ "type": "Feature", "properties": { "school_id": "SCH_080", "school_name": null, "named": false, "source_type": "area", "source_records": 1 }, "geometry": { "type": "Polygon", "coordinates": [ [ [ 101.1968331, 3.4394122 ], [ 101.1968399, 3.4409479 ], [ 101.1978312, 3.4409435 ], [ 101.197824200000014, 3.4394078 ], [ 101.1968331, 3.4394122 ] ] ] } },
{ "type": "Feature", "properties": { "school_id": "SCH_081", "school_name": null, "named": false, "source_type": "area", "source_records": 1 }, "geometry": { "type": "Polygon", "coordinates": [ [ [ 101.3010348, 3.3596164 ], [ 101.302430700000016, 3.3600411 ], [ 101.3028657, 3.3586401 ], [ 101.3014724, 3.3582428 ], [ 101.3010348, 3.3596164 ] ] ] } },
{ "type": "Feature", "properties": { "school_id": "SCH_082", "school_name": "SJK(T) Vageesar", "named": true, "source_type": "area", "source_records": 1 }, "geometry": { "type": "Polygon", "coordinates": [ [ [ 101.2424831, 3.3417214 ], [ 101.2427178, 3.3417241 ], [ 101.2427205, 3.3418446 ], [ 101.243159, 3.3418392 ], [ 101.2431664, 3.3419437 ], [ 101.2433141, 3.3419446 ], [ 101.2433152, 3.3420215 ], [ 101.2439508, 3.3420223 ], [ 101.2440455, 3.3420106 ], [ 101.2439208, 3.3416116 ], [ 101.2439315, 3.3415434 ], [ 101.2439717, 3.3414202 ], [ 101.2439691, 3.3413158 ], [ 101.2439436, 3.3412341 ], [ 101.2438068, 3.3411725 ], [ 101.2436807, 3.3410386 ], [ 101.24342990000001, 3.3405379 ], [ 101.2432127, 3.3403478 ], [ 101.2430048, 3.3403277 ], [ 101.2425877, 3.3412328 ], [ 101.2424831, 3.3417214 ] ] ] } },
{ "type": "Feature", "properties": { "school_id": "SCH_083", "school_name": "SJK (T) Ladang Tuan Mee", "named": true, "source_type": "area", "source_records": 1 }, "geometry": { "type": "Polygon", "coordinates": [ [ [ 101.4583851, 3.2680356 ], [ 101.4590247, 3.2683317 ], [ 101.4598301, 3.2668653 ], [ 101.4597615, 3.2667761 ], [ 101.459669, 3.2667363 ], [ 101.459618, 3.2668127 ], [ 101.4595382, 3.2668159 ], [ 101.4593022, 3.2672554 ], [ 101.4591363, 3.2674926 ], [ 101.4588365, 3.2673238 ], [ 101.4583851, 3.2680356 ] ] ] } },
{ "type": "Feature", "properties": { "school_id": "SCH_084", "school_name": "Sk Dato’ Maharaja Lela", "named": true, "source_type": "area", "source_records": 1 }, "geometry": { "type": "Polygon", "coordinates": [ [ [ 101.351885, 3.2703287 ], [ 101.352019200000015, 3.2721189 ], [ 101.3526991, 3.2721403 ], [ 101.3528641, 3.2720117 ], [ 101.3528761, 3.2715913 ], [ 101.3528198, 3.2715592 ], [ 101.3527963, 3.2705851 ], [ 101.3527678, 3.2705289 ], [ 101.3526951, 3.270486 ], [ 101.3525455, 3.270399 ], [ 101.3524523, 3.2703488 ], [ 101.351885, 3.2703287 ] ] ] } },
{ "type": "Feature", "properties": { "school_id": "SCH_085", "school_name": null, "named": false, "source_type": "area", "source_records": 1 }, "geometry": { "type": "Polygon", "coordinates": [ [ [ 101.3743883, 3.2817337 ], [ 101.3751445, 3.2827768 ], [ 101.3761816, 3.2820274 ], [ 101.3755764, 3.2811925 ], [ 101.3753048, 3.2813888 ], [ 101.3751539, 3.2811805 ], [ 101.3743883, 3.2817337 ] ] ] } },
{ "type": "Feature", "properties": { "school_id": "SCH_086", "school_name": null, "named": false, "source_type": "area", "source_records": 1 }, "geometry": { "type": "Polygon", "coordinates": [ [ [ 101.3758392, 3.2813523 ], [ 101.3762636, 3.2819006 ], [ 101.3769543, 3.2813677 ], [ 101.3765299, 3.2808194 ], [ 101.3758392, 3.2813523 ] ] ] } },
{ "type": "Feature", "properties": { "school_id": "SCH_087", "school_name": null, "named": false, "source_type": "area", "source_records": 1 }, "geometry": { "type": "Polygon", "coordinates": [ [ [ 101.2224833, 3.3875243 ], [ 101.2236471, 3.3888954 ], [ 101.223929, 3.3886613 ], [ 101.2227111, 3.3873036 ], [ 101.2224833, 3.3875243 ] ] ] } },
{ "type": "Feature", "properties": { "school_id": "SCH_088", "school_name": "SJK (T) Ladang Raja Musa", "named": true, "source_type": "area", "source_records": 1 }, "geometry": { "type": "Polygon", "coordinates": [ [ [ 101.2815752, 3.4130143 ], [ 101.2815862, 3.4135411 ], [ 101.282574, 3.4135207 ], [ 101.282563, 3.4129937 ], [ 101.2815752, 3.4130143 ] ] ] } },
{ "type": "Feature", "properties": { "school_id": "SCH_089", "school_name": "SJK (T) Ladang Sungai Rambai", "named": true, "source_type": "area", "source_records": 1 }, "geometry": { "type": "Polygon", "coordinates": [ [ [ 101.3659551, 3.3444452 ], [ 101.3659565, 3.3452836 ], [ 101.3663923, 3.3452828 ], [ 101.3663913, 3.3447301 ], [ 101.3663253, 3.3446691 ], [ 101.366325, 3.3444446 ], [ 101.3659551, 3.3444452 ] ] ] } },
{ "type": "Feature", "properties": { "school_id": "SCH_090", "school_name": "SJK (T) Bestari Jaya", "named": true, "source_type": "area", "source_records": 1 }, "geometry": { "type": "Polygon", "coordinates": [ [ [ 101.4036151, 3.3789714 ], [ 101.4039114, 3.3802624 ], [ 101.4038272, 3.3802825 ], [ 101.4040108, 3.3811179 ], [ 101.4047196, 3.3809549 ], [ 101.4041471, 3.3788336 ], [ 101.4036151, 3.3789714 ] ] ] } },
{ "type": "Feature", "properties": { "school_id": "SCH_091", "school_name": null, "named": false, "source_type": "area", "source_records": 1 }, "geometry": { "type": "Polygon", "coordinates": [ [ [ 101.3925733, 3.3107389 ], [ 101.3935772, 3.3109172 ], [ 101.3936878, 3.3102964 ], [ 101.3935706, 3.3102756 ], [ 101.393689, 3.3096112 ], [ 101.3928024, 3.3094537 ], [ 101.3925733, 3.3107389 ] ] ] } },
{ "type": "Feature", "properties": { "school_id": "SCH_092", "school_name": "Sekolah Rendah Agama Assam Jawa", "named": true, "source_type": "area", "source_records": 1 }, "geometry": { "type": "Polygon", "coordinates": [ [ [ 101.2907641, 3.2980059 ], [ 101.2915411, 3.2984765 ], [ 101.2917294, 3.298168 ], [ 101.2916246, 3.2980656 ], [ 101.2917238, 3.2979609 ], [ 101.2910607, 3.2975499 ], [ 101.2907641, 3.2980059 ] ] ] } },
{ "type": "Feature", "properties": { "school_id": "SCH_093", "school_name": "SK Pasangan", "named": true, "source_type": "area", "source_records": 1 }, "geometry": { "type": "Polygon", "coordinates": [ [ [ 101.3070931, 3.362286 ], [ 101.3081476, 3.3626934 ], [ 101.3085073, 3.3617654 ], [ 101.3074528, 3.3613581 ], [ 101.3070931, 3.362286 ] ] ] } },
{ "type": "Feature", "properties": { "school_id": "SCH_094", "school_name": "SMK Kuala Selangor", "named": true, "source_type": "area", "source_records": 1 }, "geometry": { "type": "Polygon", "coordinates": [ [ [ 101.2699771, 3.3324522 ], [ 101.2711208, 3.333441 ], [ 101.272326, 3.3320292 ], [ 101.271171600000017, 3.331047 ], [ 101.2699771, 3.3324522 ] ] ] } },
{ "type": "Feature", "properties": { "school_id": "SCH_095", "school_name": "SJK (T) Ladang Selangor River", "named": true, "source_type": "area", "source_records": 1 }, "geometry": { "type": "Polygon", "coordinates": [ [ [ 101.3247726, 3.3574473 ], [ 101.325905, 3.3575483 ], [ 101.3259074, 3.3562639 ], [ 101.324814, 3.3562818 ], [ 101.3247726, 3.3574473 ] ] ] } },
{ "type": "Feature", "properties": { "school_id": "SCH_096", "school_name": null, "named": false, "source_type": "area", "source_records": 1 }, "geometry": { "type": "Polygon", "coordinates": [ [ [ 101.436799800000017, 3.3882605 ], [ 101.4370975, 3.3887398 ], [ 101.4373174, 3.3899902 ], [ 101.4390019, 3.3896984 ], [ 101.4388248, 3.3883221 ], [ 101.4386961, 3.3879151 ], [ 101.4377191, 3.3880329 ], [ 101.4376815, 3.387727 ], [ 101.4374623, 3.3877525 ], [ 101.4374784, 3.3879626 ], [ 101.4370056, 3.388047 ], [ 101.436799800000017, 3.3882605 ] ] ] } },
{ "type": "Feature", "properties": { "school_id": "SCH_097", "school_name": "KAFA Integrasi Puncak Alam 3", "named": true, "source_type": "point", "source_records": 2 }, "geometry": { "type": "Point", "coordinates": [ 101.4262139, 3.2454891 ] } },
{ "type": "Feature", "properties": { "school_id": "SCH_098", "school_name": "SRII Huffaz", "named": true, "source_type": "point", "source_records": 1 }, "geometry": { "type": "Point", "coordinates": [ 101.4873123, 3.2033518 ] } },
{ "type": "Feature", "properties": { "school_id": "SCH_099", "school_name": "Sekolah Rendah Islam Az-Zahrawi", "named": true, "source_type": "point", "source_records": 1 }, "geometry": { "type": "Point", "coordinates": [ 101.4285959, 3.2355703 ] } },
{ "type": "Feature", "properties": { "school_id": "SCH_100", "school_name": null, "named": false, "source_type": "point", "source_records": 1 }, "geometry": { "type": "Point", "coordinates": [ 101.485775, 3.2009035 ] } },
{ "type": "Feature", "properties": { "school_id": "SCH_101", "school_name": "Maahad Tahfiz Al-Fadilah", "named": true, "source_type": "point", "source_records": 1 }, "geometry": { "type": "Point", "coordinates": [ 101.4277726, 3.2429668 ] } },
{ "type": "Feature", "properties": { "school_id": "SCH_102", "school_name": "Sekolah Rendah Islam Seri Mawaddah", "named": true, "source_type": "point", "source_records": 1 }, "geometry": { "type": "Point", "coordinates": [ 101.4273695, 3.2402215 ] } },
{ "type": "Feature", "properties": { "school_id": "SCH_103", "school_name": "Kafa Integrasi", "named": true, "source_type": "point", "source_records": 1 }, "geometry": { "type": "Point", "coordinates": [ 101.4231711, 3.2435034 ] } },
{ "type": "Feature", "properties": { "school_id": "SCH_104", "school_name": "Sekolah Rendah Integrasi Teras Islam Darul Amiin Puncak Alam", "named": true, "source_type": "point", "source_records": 1 }, "geometry": { "type": "Point", "coordinates": [ 101.4134067, 3.233207 ] } },
{ "type": "Feature", "properties": { "school_id": "SCH_105", "school_name": "SRI Intergeasi Al-Hikmah", "named": true, "source_type": "point", "source_records": 1 }, "geometry": { "type": "Point", "coordinates": [ 101.4469934, 3.2411677 ] } }
]
}
